{
  "type": "FeatureCollection",
  "features": [
    {
      "type": "Feature",
      "properties": {
        "norad_id": 30144,
        "name": "FENGYUN 1C DEB",
        "group": "fengyun-1c-debris",
        "lat": -71.17512512071508,
        "lon": 126.07120212480511,
        "alt_km": 874.227440675244,
        "timestamp": "2025-12-06T20:37:56.346246+00:00",
        "meta_object_name": "FENGYUN 1C DEB",
        "meta_object_id": "1999-025SZ",
        "meta_epoch": "2025-12-06T11:30:57.745728",
        "meta_mean_motion": 13.91803911,
        "meta_eccentricity": 0.01259529,
        "meta_inclination": 99.0097,
        "meta_ra_of_asc_node": 333.4375,
        "meta_arg_of_pericenter": 307.9891,
        "meta_mean_anomaly": 204.3583,
        "meta_ephemeris_type": 0,
        "meta_classification_type": "U",
        "meta_norad_cat_id": 30144,
        "meta_element_set_no": 999,
        "meta_rev_at_epoch": 95753,
        "meta_bstar": 0.00094545631,
        "meta_mean_motion_dot": 1.239e-05,
        "meta_mean_motion_ddot": 0,
        "tle_line1": "1 30144U 99025SZ  25340.47983502  .00001239  00000+0  94546-3 0  9994",
        "tle_line2": "2 30144  99.0097 333.4375 0125952 307.9891 204.3583 13.91803911957537"
      },
      "geometry": {
        "type": "Point",
        "coordinates": [
          126.07120212480511,
          -71.17512512071508
        ]
      }
    },
    {
      "type": "Feature",
      "properties": {
        "norad_id": 30145,
        "name": "FENGYUN 1C DEB",
        "group": "fengyun-1c-debris",
        "lat": -41.142575332347164,
        "lon": -97.9820941175606,
        "alt_km": 815.5447635165237,
        "timestamp": "2025-12-06T20:37:56.346268+00:00",
        "meta_object_name": "FENGYUN 1C DEB",
        "meta_object_id": "1999-025TA",
        "meta_epoch": "2025-12-06T06:08:54.531744",
        "meta_mean_motion": 14.13907688,
        "meta_eccentricity": 0.00923206,
        "meta_inclination": 99.2707,
        "meta_ra_of_asc_node": 89.5964,
        "meta_arg_of_pericenter": 166.5908,
        "meta_mean_anomaly": 224.0997,
        "meta_ephemeris_type": 0,
        "meta_classification_type": "U",
        "meta_norad_cat_id": 30145,
        "meta_element_set_no": 999,
        "meta_rev_at_epoch": 96104,
        "meta_bstar": 0.0054015812,
        "meta_mean_motion_dot": 0.00010638,
        "meta_mean_motion_ddot": 0,
        "tle_line1": "1 30145U 99025TA  25340.25618671  .00010638  00000+0  54016-2 0  9993",
        "tle_line2": "2 30145  99.2707  89.5964 0092320 166.5908 224.0997 14.13907688961041"
      },
      "geometry": {
        "type": "Point",
        "coordinates": [
          -97.9820941175606,
          -41.142575332347164
        ]
      }
    },
    {
      "type": "Feature",
      "properties": {
        "norad_id": 30146,
        "name": "FENGYUN 1C DEB",
        "group": "fengyun-1c-debris",
        "lat": 44.94477181682133,
        "lon": 133.22442585431236,
        "alt_km": 942.5333881405822,
        "timestamp": "2025-12-06T20:37:56.346280+00:00",
        "meta_object_name": "FENGYUN 1C DEB",
        "meta_object_id": "1999-025TB",
        "meta_epoch": "2025-12-06T10:09:24.647616",
        "meta_mean_motion": 13.86583782,
        "meta_eccentricity": 0.01787279,
        "meta_inclination": 98.02,
        "meta_ra_of_asc_node": 140.9389,
        "meta_arg_of_pericenter": 140.3666,
        "meta_mean_anomaly": 249.7118,
        "meta_ephemeris_type": 0,
        "meta_classification_type": "U",
        "meta_norad_cat_id": 30146,
        "meta_element_set_no": 999,
        "meta_rev_at_epoch": 95330,
        "meta_bstar": 0.0012268696,
        "meta_mean_motion_dot": 1.583e-05,
        "meta_mean_motion_ddot": 0,
        "tle_line1": "1 30146U 99025TB  25340.42320194  .00001583  00000+0  12269-2 0  9996",
        "tle_line2": "2 30146  98.0200 140.9389 0178727 140.3666 249.7118 13.86583782953300"
      },
      "geometry": {
        "type": "Point",
        "coordinates": [
          133.22442585431236,
          44.94477181682133
        ]
      }
    },
    {
      "type": "Feature",
      "properties": {
        "norad_id": 30148,
        "name": "FENGYUN 1C DEB",
        "group": "fengyun-1c-debris",
        "lat": 31.71272936174803,
        "lon": 124.05887597635108,
        "alt_km": 1030.6988364254967,
        "timestamp": "2025-12-06T20:37:56.346291+00:00",
        "meta_object_name": "FENGYUN 1C DEB",
        "meta_object_id": "1999-025TD",
        "meta_epoch": "2025-12-05T16:53:02.915808",
        "meta_mean_motion": 13.88462574,
        "meta_eccentricity": 0.01348386,
        "meta_inclination": 99.5452,
        "meta_ra_of_asc_node": 128.8439,
        "meta_arg_of_pericenter": 215.3673,
        "meta_mean_anomaly": 160.912,
        "meta_ephemeris_type": 0,
        "meta_classification_type": "U",
        "meta_norad_cat_id": 30148,
        "meta_element_set_no": 999,
        "meta_rev_at_epoch": 95419,
        "meta_bstar": 0.0015131632,
        "meta_mean_motion_dot": 1.906e-05,
        "meta_mean_motion_ddot": 0,
        "tle_line1": "1 30148U 99025TD  25339.70350597  .00001906  00000+0  15132-2 0  9998",
        "tle_line2": "2 30148  99.5452 128.8439 0134838 215.3673 160.9120 13.88462574954196"
      },
      "geometry": {
        "type": "Point",
        "coordinates": [
          124.05887597635108,
          31.71272936174803
        ]
      }
    },
    {
      "type": "Feature",
      "properties": {
        "norad_id": 30150,
        "name": "FENGYUN 1C DEB",
        "group": "fengyun-1c-debris",
        "lat": -28.151708747343605,
        "lon": -67.78634113193593,
        "alt_km": 1032.2874102345068,
        "timestamp": "2025-12-06T20:37:56.346302+00:00",
        "meta_object_name": "FENGYUN 1C DEB",
        "meta_object_id": "1999-025TF",
        "meta_epoch": "2025-12-06T14:44:37.356864",
        "meta_mean_motion": 13.86582952,
        "meta_eccentricity": 0.01466336,
        "meta_inclination": 98.9942,
        "meta_ra_of_asc_node": 116.8394,
        "meta_arg_of_pericenter": 352.7817,
        "meta_mean_anomaly": 72.5573,
        "meta_ephemeris_type": 0,
        "meta_classification_type": "U",
        "meta_norad_cat_id": 30150,
        "meta_element_set_no": 999,
        "meta_rev_at_epoch": 95373,
        "meta_bstar": 0.00076541336,
        "meta_mean_motion_dot": 9.25e-06,
        "meta_mean_motion_ddot": 0,
        "tle_line1": "1 30150U 99025TF  25340.61432126  .00000925  00000+0  76541-3 0  9994",
        "tle_line2": "2 30150  98.9942 116.8394 0146633 352.7817  72.5573 13.86582952953735"
      },
      "geometry": {
        "type": "Point",
        "coordinates": [
          -67.78634113193593,
          -28.151708747343605
        ]
      }
    },
    {
      "type": "Feature",
      "properties": {
        "norad_id": 30151,
        "name": "FENGYUN 1C DEB",
        "group": "fengyun-1c-debris",
        "lat": 56.674106535322444,
        "lon": -25.011083692958863,
        "alt_km": 1006.7312482034622,
        "timestamp": "2025-12-06T20:37:56.346313+00:00",
        "meta_object_name": "FENGYUN 1C DEB",
        "meta_object_id": "1999-025TG",
        "meta_epoch": "2025-12-06T12:25:35.767776",
        "meta_mean_motion": 13.84459403,
        "meta_eccentricity": 0.01632223,
        "meta_inclination": 99.0632,
        "meta_ra_of_asc_node": 348.7077,
        "meta_arg_of_pericenter": 295.566,
        "meta_mean_anomaly": 217.5547,
        "meta_ephemeris_type": 0,
        "meta_classification_type": "U",
        "meta_norad_cat_id": 30151,
        "meta_element_set_no": 999,
        "meta_rev_at_epoch": 95159,
        "meta_bstar": 0.0011602092,
        "meta_mean_motion_dot": 1.397e-05,
        "meta_mean_motion_ddot": 0,
        "tle_line1": "1 30151U 99025TG  25340.51777509  .00001397  00000+0  11602-2 0  9991",
        "tle_line2": "2 30151  99.0632 348.7077 0163222 295.5660 217.5547 13.84459403951597"
      },
      "geometry": {
        "type": "Point",
        "coordinates": [
          -25.011083692958863,
          56.674106535322444
        ]
      }
    },
    {
      "type": "Feature",
      "properties": {
        "norad_id": 30152,
        "name": "FENGYUN 1C DEB",
        "group": "fengyun-1c-debris",
        "lat": -75.72641797278325,
        "lon": -122.37215244417284,
        "alt_km": 1030.2998491295912,
        "timestamp": "2025-12-06T20:37:56.346323+00:00",
        "meta_object_name": "FENGYUN 1C DEB",
        "meta_object_id": "1999-025TH",
        "meta_epoch": "2025-12-06T14:08:27.842496",
        "meta_mean_motion": 13.96624624,
        "meta_eccentricity": 0.0161316,
        "meta_inclination": 99.0798,
        "meta_ra_of_asc_node": 198.4161,
        "meta_arg_of_pericenter": 102.316,
        "meta_mean_anomaly": 259.6114,
        "meta_ephemeris_type": 0,
        "meta_classification_type": "U",
        "meta_norad_cat_id": 30152,
        "meta_element_set_no": 999,
        "meta_rev_at_epoch": 95292,
        "meta_bstar": 0.0034377635,
        "meta_mean_motion_dot": 5.275e-05,
        "meta_mean_motion_ddot": 0,
        "tle_line1": "1 30152U 99025TH  25340.58921114  .00005275  00000+0  34378-2 0  9996",
        "tle_line2": "2 30152  99.0798 198.4161 0161316 102.3160 259.6114 13.96624624952924"
      },
      "geometry": {
        "type": "Point",
        "coordinates": [
          -122.37215244417284,
          -75.72641797278325
        ]
      }
    }
  ]
}